OBJECT_NAME,OBJECT_ID,EPOCH,MEAN_MOTION,ECCENTRICITY,INCLINATION,RA_OF_ASC_NODE,ARG_OF_PERICENTER,MEAN_ANOMALY,EPHEMERIS_TYPE,CLASSIFICATION_TYPE,NORAD_CAT_ID,ELEMENT_SET_NO,REV_AT_EPOCH,BSTAR,MEAN_MOTION_DOT,MEAN_MOTION_DDOT
FLOCK 4BE-27,2024-149AX,2026-06-05T10:55:54.709248,15.34233363,.0003527,97.3822,238.3029,8.6721,351.4582,0,U,60513,999,10034,.2651E-3,.8707E-4,0
FLOCK 4BE-9,2024-149AY,2026-06-05T11:07:57.946368,15.40436769,.0002141,97.3788,240.6250,10.1464,349.9825,0,U,60514,999,10051,.36755E-3,.14803E-3,0
FLOCK 4BE-6,2024-149BA,2026-06-05T11:36:12.969216,15.39249089,.0002653,97.3785,240.0250,3.1003,357.0258,0,U,60516,999,10047,.36459E-3,.1412E-3,0
FLOCK 4BE-14,2024-149BB,2026-06-05T11:28:00.903072,15.40617989,.0003482,97.3694,240.1457,353.2344,6.8854,0,U,60517,999,10052,.41002E-3,.16628E-3,0
FLOCK 4BE-1,2024-149BC,2026-06-05T12:08:25.174752,15.42205268,.0003174,97.3776,241.4096,351.0284,9.0906,0,U,60518,999,10057,.45177E-3,.19328E-3,0
FLOCK 4BE-28,2024-149BD,2026-06-05T12:53:54.127392,15.44485980,.0003224,97.3744,242.1297,345.9740,14.1418,0,U,60519,999,10064,.41916E-3,.19357E-3,0
IPERDRONE.0,2024-149BE,2026-06-05T11:36:41.001696,15.64947493,.0002472,97.3779,249.1336,262.8816,97.2162,0,U,60520,999,10108,.74655E-3,.73456E-3,0
TRANSPORTER-11 OBJECT BF,2024-149BF,2026-06-05T01:09:45.585792,15.79539696,.0004327,97.3767,251.0972,253.5787,106.5005,0,U,60521,999,10116,.10563411E-2,.195244E-2,0
CONNECTA IOT-2,2024-149BG,2026-06-05T11:48:49.262976,15.23872926,.0006669,97.3835,234.8159,21.0113,339.1397,0,U,60522,999,10011,.21654E-3,.5157E-4,0
PTD-R (TYVAK-0127),2024-149BH,2026-06-05T12:15:34.658784,16.03036816,.0007672,97.3895,256.2759,272.7905,87.2496,0,U,60523,999,10156,.13406E-2,.807968E-2,.32323E-3
CONNECTA IOT-4,2024-149BJ,2026-06-04T17:55:57.401760,15.41677482,.00044192,97.3795,239.9749,344.3876,15.7234,0,U,60524,999,10041,.50188355E-3,.21115E-3,0
ORESAT0.5,2024-149BK,2026-06-04T05:28:34.478112,15.44577435,.00043958,97.3720,241.0355,335.4911,24.6128,0,U,60525,999,10047,.45575303E-3,.21128E-3,0
DEIMOS,2024-149BL,2026-06-05T11:38:13.907616,15.43794570,.000445,97.3788,242.4568,338.3576,21.7484,0,U,60526,999,10064,.41245E-3,.18607E-3,0
CUAVA-2,2024-149BM,2026-06-05T11:41:15.059904,15.35840214,.0005874,97.3724,237.9891,345.8906,14.2173,0,U,60527,999,10037,.3492E-3,.12108E-3,0
ERNST,2024-149BN,2026-06-05T12:45:42.178752,15.38891362,.0005188,97.3804,240.1668,351.3952,8.7204,0,U,60528,999,10048,.36432E-3,.13949E-3,0
TORO,2024-149BQ,2026-06-05T11:18:07.422336,14.96375898,.0001406,97.6776,231.3578,89.0647,271.0736,0,U,60530,999,9820,.18975E-3,.2092E-4,0
HYPSO-2,2024-149BR,2026-06-04T04:21:53.935200,14.98737079,.00021532,97.6836,231.6334,61.9102,298.2338,0,U,60531,999,9810,.22010964E-3,.259E-4,0
LEMU NGE,2024-149BS,2026-06-05T11:19:12.891072,14.94901187,.0002396,97.6835,231.6683,81.5349,278.6143,0,U,60532,999,9820,.22617E-3,.241E-4,0
LEMUR-2-STELLA,2024-149BT,2026-06-04T04:10:32.423232,15.11514040,.0001851,97.6733,237.5749,101.9080,258.2357,0,U,60533,999,9853,.78866E-3,.13309E-3,0
SATELIOT_2,2024-149BU,2026-06-05T10:58:54.429888,14.96315880,.0001676,97.6822,231.6281,101.1475,258.9935,0,U,60534,999,9821,.15502E-3,.1696E-4,0
NIGHTJAR,2024-149BV,2026-06-05T04:14:19.974048,14.98960975,.0002609,97.6867,233.0501,92.9881,267.1641,0,U,60535,999,14107,.26419E-3,.3139E-4,0
LEMUR-2-MARHISYAM,2024-149BW,2026-06-05T11:22:42.297888,15.11007270,.0003062,97.6876,239.3178,138.4207,221.7255,0,U,60536,999,9871,.59009E-3,.9798E-4,0
SATELIOT_4,2024-149BX,2026-06-05T11:17:59.184960,14.96621583,.0003287,97.6727,231.1763,84.8932,275.2665,0,U,60537,999,9822,.18494E-3,.205E-4,0
PICO-02A021,2024-149BY,2026-06-05T10:48:59.336064,15.03126063,.0005813,97.6724,235.3861,63.3313,296.8507,0,U,60538,999,9797,.377E-3,.5031E-4,0
ICEYE-X43,2024-149BZ,2026-06-04T16:25:25.768992,14.99901035,.000736,97.6758,232.8227,121.8704,238.3236,0,U,60539,999,9824,.38237E-3,.4687E-4,0
HAWK-10A,2024-149CA,2026-06-05T11:14:26.138976,14.96472189,.0004612,97.6884,232.5813,107.1098,253.0629,0,U,60540,999,9823,.14527E-3,.1592E-4,0
UMBRA-09,2024-149CB,2026-06-04T16:10:09.100416,15.17588114,.0001066,97.6938,242.6649,319.5587,40.5566,0,U,60541,999,9882,.72885E-3,.14594E-3,0
QPS-SAR-8 (AMATERU-IV),2024-149CC,2026-06-05T11:38:09.717216,15.04019043,.0004506,97.6669,235.7339,133.5930,226.5670,0,U,60542,999,9851,.4478E-3,.6132E-4,0
ARCTIC WEATHER SATELLITE,2024-149CD,2026-06-05T11:12:32.884128,14.89811085,.0003317,97.6802,227.2673,126.4647,233.6877,0,U,60543,999,9755,.1063E-3,.967E-5,0
CAPELLA-15 (ACADIA-5),2024-149CE,2026-06-04T17:13:18.499872,14.92412120,.00052617,97.6773,228.9328,115.3915,244.7850,0,U,60544,999,9799,.73821221E-3,.7512E-4,0
